NORAD_CAT_ID,OBJECT_NAME,OBJECT_TYPE,EPOCH,MEAN_MOTION,ECCENTRICITY,INCLINATION,RA_OF_ASC_NODE,ARG_OF_PERICENTER,MEAN_ANOMALY,BSTAR,MEAN_MOTION_DOT,MEAN_MOTION_DDOT,TLE_LINE0,TLE_LINE1,TLE_LINE2,SEMIMAJOR_AXIS,PERIOD,APOGEE,PERIGEE,DECAYED
52115.0,STARLINK-3685,PAYLOAD,2024-05-16 11:09:23,15.08852503,0.0001158,53.2155,171.9634,86.5165,273.596,-0.00014487,-2.594e-05,0.0,0 STARLINK-3685,1 52115U 22029AD  24137.46485447 -.00002594  00000-0 -14487-3 0  9997,2 52115  53.2155 171.9634 0001158  86.5165 273.5960 15.08852503120815,6917.842,95.437,540.508,538.906,0.0
52115.0,STARLINK-3685,PAYLOAD,2024-05-16 19:06:18,15.08856342,9.08e-05,53.2152,170.4755,82.1955,277.914,1.9794e-05,2.7e-07,0.0,0 STARLINK-3685,1 52115U 22029AD  24137.79604348  .00000027  00000-0  19794-4 0  9990,2 52115  53.2152 170.4755 0000908  82.1955 277.9140 15.08856342120869,6917.83,95.437,540.324,539.067,0.0
52115.0,STARLINK-3685,PAYLOAD,2024-05-17 12:35:34,15.08829443,0.0001426,53.2157,167.2061,84.5132,275.6022,-4.4062e-05,-9.89e-06,0.0,0 STARLINK-3685,1 52115U 22029AD  24138.52470568 -.00000989  00000-0 -44062-4 0  9992,2 52115  53.2157 167.2061 0001426  84.5132 275.6022 15.08829443120975,6917.913,95.438,540.764,538.791,0.0
52115.0,STARLINK-3685,PAYLOAD,2024-05-17 18:57:06,15.08835339,0.0001423,53.2164,166.0167,84.2276,275.8879,4.0718e-05,3.6e-06,0.0,0 STARLINK-3685,1 52115U 22029AD  24138.78966073  .00000360  00000-0  40718-4 0  9996,2 52115  53.2164 166.0167 0001423  84.2276 275.8879 15.08835339121019,6917.895,95.438,540.744,538.775,0.0
52115.0,STARLINK-3685,PAYLOAD,2024-05-18 10:50:56,15.08854046,0.0001389,53.2157,163.0424,88.236,271.8792,0.00021566,3.147e-05,0.0,0 STARLINK-3685,1 52115U 22029AD  24139.45204549  .00003147  00000-0  21566-3 0  9999,2 52115  53.2157 163.0424 0001389  88.2360 271.8792 15.08854046121110,6917.837,95.437,540.663,538.742,0.0
52115.0,STARLINK-3685,PAYLOAD,2024-05-18 18:47:52,15.08855065,0.0001475,53.2153,161.556,87.8935,272.2226,0.00029421,4.399e-05,0.0,0 STARLINK-3685,1 52115U 22029AD  24139.78324786  .00004399  00000-0  29421-3 0  9999,2 52115  53.2153 161.5560 0001475  87.8935 272.2226 15.08855065121163,6917.834,95.437,540.72,538.679,0.0
52115.0,STARLINK-3685,PAYLOAD,2024-05-19 07:30:58,15.08831549,0.0001512,53.2142,159.1748,98.7697,261.3467,-3.5761e-05,-8.57e-06,0.0,0 STARLINK-3685,1 52115U 22029AD  24140.31318083 -.00000857  00000-0 -35761-4 0  9995,2 52115  53.2142 159.1748 0001512  98.7697 261.3467 15.08831549121246,6917.906,95.438,540.817,538.725,0.0
52115.0,STARLINK-3685,PAYLOAD,2024-05-20 01:00:13,15.08840082,0.000161,53.2147,155.9018,104.0234,256.0937,0.00014579,2.033e-05,0.0,0 STARLINK-3685,1 52115U 22029AD  24141.04181979  .00002033  00000-0  14579-3 0  9997,2 52115  53.2147 155.9018 0001610 104.0234 256.0937 15.08840082121359,6917.88,95.438,540.859,538.631,0.0
52115.0,STARLINK-3685,PAYLOAD,2024-05-20 07:21:45,15.08841692,0.0001566,53.2144,154.7157,100.2595,259.8573,0.00054035,8.323e-05,0.0,0 STARLINK-3685,1 52115U 22029AD  24141.30678140  .00008323  00000-0  54035-3 0  9996,2 52115  53.2144 154.7157 0001566 100.2595 259.8573 15.08841692121394,6917.875,95.437,540.824,538.657,0.0
52115.0,STARLINK-3685,PAYLOAD,2024-05-21 04:01:46,15.08852353,0.0001572,53.2144,150.85,100.3229,259.7941,0.00047065,7.213e-05,0.0,0 STARLINK-3685,1 52115U 22029AD  24142.16789782  .00007213  00000-0  47065-3 0  9998,2 52115  53.2144 150.8500 0001572 100.3229 259.7941 15.08852353121524,6917.843,95.437,540.795,538.62,0.0
52115.0,STARLINK-3685,PAYLOAD,2024-05-21 07:12:32,15.0885183,0.0001492,53.214,150.2563,104.5251,255.5906,0.00040914,6.232e-05,0.0,0 STARLINK-3685,1 52115U 22029AD  24142.30037689  .00006232  00000-0  40914-3 0  9992,2 52115  53.2140 150.2563 0001492 104.5251 255.5906 15.08851830121541,6917.844,95.437,540.741,538.677,0.0
52115.0,STARLINK-3685,PAYLOAD,2024-05-22 03:52:33,15.08845952,0.0001516,53.2144,146.388,101.338,258.7783,7.5183e-05,9.09e-06,0.0,0 STARLINK-3685,1 52115U 22029AD  24143.16149439  .00000909  00000-0  75183-4 0  9996,2 52115  53.2144 146.3880 0001516 101.3380 258.7783 15.08845952121678,6917.862,95.437,540.776,538.678,0.0
52115.0,STARLINK-3685,PAYLOAD,2024-05-22 05:27:56,15.08845123,0.0001511,53.2144,146.0906,102.6798,257.4363,5.1541e-05,5.32e-06,0.0,0 STARLINK-3685,1 52115U 22029AD  24143.22773420  .00000532  00000-0  51541-4 0  9990,2 52115  53.2144 146.0906 0001511 102.6798 257.4363 15.08845123121687,6917.865,95.437,540.775,538.684,0.0
52115.0,STARLINK-3685,PAYLOAD,2024-05-23 03:43:20,15.08836301,0.0001553,53.2146,141.9273,110.7766,249.3393,-3.5868e-05,-8.59e-06,0.0,0 STARLINK-3685,1 52115U 22029AD  24144.15509784 -.00000859  00000-0 -35868-4 0  9991,2 52115  53.2146 141.9273 0001553 110.7766 249.3393 15.08836301121828,6917.892,95.438,540.831,538.682,0.0
52115.0,STARLINK-3685,PAYLOAD,2024-05-23 06:54:07,15.0883464,0.0001373,53.2156,141.3332,102.5448,257.5697,-1.6421e-05,-5.49e-06,0.0,0 STARLINK-3685,1 52115U 22029AD  24144.28758321 -.00000549  00000-0 -16421-4 0  9998,2 52115  53.2156 141.3332 0001373 102.5448 257.5697 15.08834640121849,6917.897,95.438,540.712,538.812,0.0
52115.0,STARLINK-3685,PAYLOAD,2024-05-24 05:09:30,15.08837845,0.0001202,53.2155,137.1723,87.8834,272.2296,9.1832e-05,1.174e-05,0.0,0 STARLINK-3685,1 52115U 22029AD  24145.21493995  .00001174  00000-0  91832-4 0  9997,2 52115  53.2155 137.1723 0001202  87.8834 272.2296 15.08837845121984,6917.887,95.438,540.584,538.92,0.0
52115.0,STARLINK-3685,PAYLOAD,2024-05-25 08:11:04,15.08836608,0.0001153,53.2155,132.1168,89.0138,271.0987,7.6782e-05,9.34e-06,0.0,0 STARLINK-3685,1 52115U 22029AD  24146.34102270  .00000934  00000-0  76782-4 0  9995,2 52115  53.2155 132.1168 0001153  89.0138 271.0987 15.08836608122158,6917.891,95.438,540.553,538.958,0.0
52115.0,STARLINK-3685,PAYLOAD,2024-05-26 06:26:28,15.08840149,0.0001215,53.2161,127.9538,77.9289,282.1839,4.9887e-05,5.06e-06,0.0,0 STARLINK-3685,1 52115U 22029AD  24147.26838439  .00000506  00000-0  49887-4 0  9991,2 52115  53.2161 127.9538 0001215  77.9289 282.1839 15.08840149122299,6917.88,95.438,540.585,538.904,0.0
52115.0,STARLINK-3685,PAYLOAD,2024-05-26 15:58:38,15.08914551,0.0004984,53.2174,126.1627,271.8041,88.238,0.0014717,0.00023264,0.0,0 STARLINK-3685,1 52115U 22029AD  24147.66572225  .00023264  00000-0  14717-2 0  9991,2 52115  53.2174 126.1627 0004984 271.8041  88.2380 15.08914551122352,6917.653,95.433,542.965,536.07,0.0
52115.0,STARLINK-3685,PAYLOAD,2024-05-27 03:06:29,15.08838735,0.0001375,53.2164,124.0869,83.7427,276.3722,8.9387e-05,1.135e-05,0.0,0 STARLINK-3685,1 52115U 22029AD  24148.12950316  .00001135  00000-0  89387-4 0  9994,2 52115  53.2164 124.0869 0001375  83.7427 276.3722 15.08838735122422,6917.884,95.438,540.7,538.798,0.0
52115.0,STARLINK-3685,PAYLOAD,2024-05-27 04:41:52,15.08839661,0.0001482,53.2166,123.7895,76.8289,283.2869,0.00010755,1.424e-05,0.0,0 STARLINK-3685,1 52115U 22029AD  24148.19574302  .00001424  00000-0  10755-3 0  9991,2 52115  53.2166 123.7895 0001482  76.8289 283.2869 15.08839661122436,6917.881,95.438,540.772,538.721,0.0
52115.0,STARLINK-3685,PAYLOAD,2024-05-28 22:01:53,15.08839548,0.0001281,53.2158,116.0556,91.8381,268.2758,7.5012e-06,-1.68e-06,0.0,0 STARLINK-3685,1 52115U 22029AD  24149.91798395 -.00000168  00000-0  75012-5 0  9996,2 52115  53.2158 116.0556 0001281  91.8381 268.2758 15.08839548122695,6917.882,95.438,540.633,538.861,0.0
52115.0,STARLINK-3685,PAYLOAD,2024-05-29 04:23:26,15.08839318,0.0001282,53.2159,114.8661,93.6457,266.4681,1.7137e-06,-2.61e-06,0.0,0 STARLINK-3685,1 52115U 22029AD  24150.18294386 -.00000261  00000-0  17137-5 0  9996,2 52115  53.2159 114.8661 0001282  93.6457 266.4681 15.08839318122739,6917.882,95.438,540.634,538.861,0.0
52115.0,STARLINK-3685,PAYLOAD,2024-05-29 07:34:12,15.08838602,0.0001317,53.2162,114.272,96.6397,263.4745,-6.4618e-06,-3.91e-06,0.0,0 STARLINK-3685,1 52115U 22029AD  24150.31542447 -.00000391  00000-0 -64618-5 0  9996,2 52115  53.2162 114.2720 0001317  96.6397 263.4745 15.08838602122753,6917.885,95.438,540.661,538.839,0.0
52115.0,STARLINK-3685,PAYLOAD,2024-05-30 07:24:59,15.08835801,0.0001341,53.2165,109.8118,99.4558,260.6586,2.5939e-05,1.25e-06,0.0,0 STARLINK-3685,1 52115U 22029AD  24151.30902714  .00000125  00000-0  25939-4 0  9998,2 52115  53.2165 109.8118 0001341  99.4558 260.6586 15.08835801122901,6917.893,95.438,540.686,538.831,0.0
52115.0,STARLINK-3685,PAYLOAD,2024-05-30 21:43:28,15.08836438,0.0001331,53.2166,107.1358,100.0438,260.0705,5.2402e-05,5.46e-06,0.0,0 STARLINK-3685,1 52115U 22029AD  24151.90518764  .00000546  00000-0  52402-4 0  9994,2 52115  53.2166 107.1358 0001331 100.0438 260.0705 15.08836438122997,6917.891,95.438,540.677,538.836,0.0
52115.0,STARLINK-3685,PAYLOAD,2024-05-31 07:15:47,15.08836958,0.0001337,53.2167,105.3515,101.001,259.1132,5.832e-05,6.4e-06,0.0,0 STARLINK-3685,1 52115U 22029AD  24152.30262824  .00000640  00000-0  58320-4 0  9992,2 52115  53.2167 105.3515 0001337 101.0010 259.1132 15.08836958123054,6917.89,95.438,540.68,538.83,0.0
52115.0,STARLINK-3685,PAYLOAD,2024-06-01 03:55:48,15.08833075,0.0001329,53.2174,101.4881,94.3132,265.8012,5.1808e-06,-2.05e-06,0.0,0 STARLINK-3685,1 52115U 22029AD  24153.16375476 -.00000205  00000-0  51808-5 0  9998,2 52115  53.2174 101.4881 0001329  94.3132 265.8012 15.08833075123187,6917.902,95.438,540.686,538.847,0.0
52115.0,STARLINK-3685,PAYLOAD,2024-06-01 13:28:06,15.0884283,0.0001414,53.2176,99.7039,89.115,271.0004,6.7539e-05,7.87e-06,0.0,0 STARLINK-3685,1 52115U 22029AD  24153.56118797  .00000787  00000-0  67539-4 0  9994,2 52115  53.2176  99.7039 0001414  89.1150 271.0004 15.08842830123246,6917.872,95.437,540.715,538.759,0.0
52115.0,STARLINK-3685,PAYLOAD,2024-06-02 03:46:35,15.08836022,0.0001452,53.2172,97.0278,86.6533,273.4625,4.3839e-05,4.1e-06,0.0,0 STARLINK-3685,1 52115U 22029AD  24154.15735493  .00000410  00000-0  43839-4 0  9998,2 52115  53.2172  97.0278 0001452  86.6533 273.4625 15.08836022123338,6917.893,95.438,540.762,538.753,0.0
